Passport,Name,City,Street,Phone
78№щих4637462,"КазаковаА лла Вячелсавовна ","Псковская обл д.  Новая Быковка 247286 ","проезд Александровсакя д.  2 "," +97125682391"
53№6781887,"Богданов Павел аМксмиовч ","Московсакя обл. г.  Иасковка 214696 ",ул.Г астелло д.  9 кв. 65," +78987773832"
92№7570873,"Белоусвоа Людмила Аанотльевна ","Воронежская олб. г . оХлопово 270178 ",ул. Маркса аКрал д.  68к в. 44," +79862272479"
68№5961621,"ДроздовП аисий Тимофееивч "," г.  СанктП-етербург 294982 ","ул. Бсхетеревад.  25 ",+79368121314
2980№75294,"Сорокин Портасий Глебоивч ","Владимирскяа обл. аг.  Долагя Лужа 224802 ","ул.Казея д.  45 "," +97564350973"
57№2254853,"Калашников рЕофей Юрьевич ","Ленинграсдкаяо бл .д.  Борисово 269109 ",ул. Ватутина д.5  7 кв. 89," +79492213935"
21№5799804,"Копылов ИнгатийКорнеевич ","Чеченскяа Рес. д.  Курчалой 234658о ",ул М.аркса Крала д.  54 кв. 9," +79260650413"
56№7118831,"Игнатова Антонина Вячеславвона ","Ленинградскаяо бл. д.  Борисово 26д9109 ",ул. иноградная д. 7 3 в.к 69," +79896239224"
93№38126п55,"Астафьеав Полина аВленитновна ","Чеченксая Ре.с г.  Гунюшки 252624 ","ул. Казяе д.  66 "," +79602059090"
30№768664,"Стрелков Вадим Юрьвечи ","Калининрадская обл. г.  Гороховец 280629 ","ул. Гкиало д . 44 "," +75971852746"
42№2041365,"Соболев Пафнутий Ярославович ","Тверская обл. д. Х арино 2д69298 ","ул. Виноргадная д. 8  ",+799ф39151948
94№8358729,"Ворноина Юлия Юьревна ","Ленинградская бол. д.  Борисово 269109 ",ул. нПская .д  75 в.к 85," +71976305216"
88№7364626,"Капутсин Платон Денисович ","Псковская обл. г.  Волковойно 267593 ","прозед Алекснадровская д . 98 "," +97216562488"
72№2557969,"Громов Годре йСепанович ","Костромская обл. д.  Иваньково 216090 ",ул .Пинская д.  37 кв. 95," +ф97872321343"
20№7747594,"Дьяконова Реигна Петронва ","Чеченская еРс. село  Рошни-Чу 269168 ","ул .Ватутина д.  24 "," +79417896375"
453№011455,"Верщеагиан кАулина Ефимован ","Ленинградска яобл. аг . оХрошево299378 ",ул. Белинского д.  87 кв. 18," +79444997458"
56№5296933,"Вишневска яМирослаав Робетровна ","Чеченская Рес. село  РошниЧ-у 269168 ",ул. лАекснадровская д.  24 кв. 90," +79641519653"
45№2224733,"Овчниников Добырня Митрофанович ","Московска яобл. г.  Иасковка 216946 ","ул. Ивнаовскяа д.  96 "," +79283075893"
5491№14591,"КузьмиАнникита Паволивч ","Калининградская бол. г . Гороховец 280629 ","ул. Ггаарина д.  96 "," +79449973356"
84№4376600,"Сидоров Иван Ярославович ","Брянская обл. село  Любыьш 924385 ",ул. Александровская д.  28к в. 32," +79354072639"
