Passport,Name,City,Street,Phone
78№щих4637462,"КазаковаА лла Вячелсавовна ","Псковская обл д.  Новая Быковка 247286 ","проезд Александровсакя д.  2 "," +97125682391"
53№6781887,"Богданов Павел аМксмиовч ","Московсакя обл. г.  Иасковка 214696 ",ул.Г астелло д.  9 кв. 65," +78987773832"
92№7570873,"Белоусвоа Людмила Аанотльевна ","Воронежская олб. г . оХлопово 270178 ",ул. Маркса аКрал д.  68к в. 44," +79862272479"
68№5961621,"ДроздовП аисий Тимофееивч "," г.  СанктП-етербург 294982 ","ул. Бсхетеревад.  25 ",+79368121314
2980№75294,"Сорокин Портасий Глебоивч ","Владимирскяа обл. аг.  Долагя Лужа 224802 ","ул.Казея д.  45 "," +97564350973"
57№2254853,"Калашников рЕофей Юрьевич ","Ленинграсдкаяо бл .д.  Борисово 269109 ",ул. Ватутина д.5  7 кв. 89," +79492213935"
21№5799804,"Копылов ИнгатийКорнеевич ","Чеченскяа Рес. д.  Курчалой 234658о ",ул М.аркса Крала д.  54 кв. 9," +79260650413"
56№7118831,"Игнатова Антонина Вячеславвона ","Ленинградскаяо бл. д.  Борисово 26д9109 ",ул. иноградная д. 7 3 в.к 69," +79896239224"
93№38126п55,"Астафьеав Полина аВленитновна ","Чеченксая Ре.с г.  Гунюшки 252624 ","ул. Казяе д.  66 "," +79602059090"
30№768664,"Стрелков Вадим Юрьвечи ","Калининрадская обл. г.  Гороховец 280629 ","ул. Гкиало д . 44 "," +75971852746"
42№2041365,"Соболев Пафнутий Ярославович ","Тверская обл. д. Х арино 2д69298 ","ул. Виноргадная д. 8  ",+799ф39151948
94№8358729,"Ворноина Юлия Юьревна ","Ленинградская бол. д.  Борисово 269109 ",ул. нПская .д  75 в.к 85," +71976305216"
88№7364626,"Капутсин Платон Денисович ","Псковская обл. г.  Волковойно 267593 ","прозед Алекснадровская д . 98 "," +97216562488"
72№2557969,"Громов Годре йСепанович ","Костромская обл. д.  Иваньково 216090 ",ул .Пинская д.  37 кв. 95," +ф97872321343"
20№7747594,"Дьяконова Реигна Петронва ","Чеченская еРс. село  Рошни-Чу 269168 ","ул .Ватутина д.  24 "," +79417896375"
453№011455,"Верщеагиан кАулина Ефимован ","Ленинградска яобл. аг . оХрошево299378 ",ул. Белинского д.  87 кв. 18," +79444997458"
56№5296933,"Вишневска яМирослаав Робетровна ","Чеченская Рес. село  РошниЧ-у 269168 ",ул. лАекснадровская д.  24 кв. 90," +79641519653"
45№2224733,"Овчниников Добырня Митрофанович ","Московска яобл. г.  Иасковка 216946 ","ул. Ивнаовскяа д.  96 "," +79283075893"
5491№14591,"КузьмиАнникита Паволивч ","Калининградская бол. г . Гороховец 280629 ","ул. Ггаарина д.  96 "," +79449973356"
84№4376600,"Сидоров Иван Ярославович ","Брянская обл. село  Любыьш 924385 ",ул. Александровская д.  28к в. 32," +79354072639"
78№щих4637462,"КазаковаА лла Вячелсавовна ","Псковская обл д.  Новая Быковка 247286 ","проезд Александровсакя д.  2 "," +97125682391"
53№6781887,"Богданов Павел аМксмиовч ","Московсакя обл. г.  Иасковка 214696 ",ул.Г астелло д.  9 кв. 65," +78987773832"
92№7570873,"Белоусвоа Людмила Аанотльевна ","Воронежская олб. г . оХлопово 270178 ",ул. Маркса аКрал д.  68к в. 44," +79862272479"
68№5961621,"ДроздовП аисий Тимофееивч "," г.  СанктП-етербург 294982 ","ул. Бсхетеревад.  25 ",+79368121314
2980№75294,"Сорокин Портасий Глебоивч ","Владимирскяа обл. аг.  Долагя Лужа 224802 ","ул.Казея д.  45 "," +97564350973"
57№2254853,"Калашников рЕофей Юрьевич ","Ленинграсдкаяо бл .д.  Борисово 269109 ",ул. Ватутина д.5  7 кв. 89," +79492213935"
21№5799804,"Копылов ИнгатийКорнеевич ","Чеченскяа Рес. д.  Курчалой 234658о ",ул М.аркса Крала д.  54 кв. 9," +79260650413"
56№7118831,"Игнатова Антонина Вячеславвона ","Ленинградскаяо бл. д.  Борисово 26д9109 ",ул. иноградная д. 7 3 в.к 69," +79896239224"
93№38126п55,"Астафьеав Полина аВленитновна ","Чеченксая Ре.с г.  Гунюшки 252624 ","ул. Казяе д.  66 "," +79602059090"
30№768664,"Стрелков Вадим Юрьвечи ","Калининрадская обл. г.  Гороховец 280629 ","ул. Гкиало д . 44 "," +75971852746"
36№727283,"Григорьев ИзотВ алериевич ","Вороенжскаяо бл.г . Х олопово2 70178 ","ул. Виноградная д.  38 "," +79825281231"
41№553857,"Дегтярёва Олипмиада нАдрееван ","Псковксая обл. г.  Волковойно 267539 ",ул. Каез яд.  71 к.в 78," +79284077772"
76№9924396,"ИсаеваУ рслу аКирилловна ","Владимрискяа обл. г.  Владчимир 202863 ",Игумеснкий тракт д.  17 кв. 23," +71954597848"
75№9759119,"Агеева Елиазвета иКрилловна ","Тверская обл. село  Аагфоново 021361 ",ул. Виногардная д.  51 кв. 87," +79699555867"
94№2757256,"Алёихн аАлиса Юрьенва ","Брянская обл. г. Д ятьокво 235408 ","ул. Белниского д.  11 "," +79814571012"
71№468938,"Щербаков еВниаимн Геннадиевич ","Калининргадкася абол. д.  Ивачево 206250 ","Игумеснкий тракт д.  60 "," +79882090940"
26№8437940,"Мельнагиков Иулиан Коснтантинович ","Ленинградска яобл. г.  Зелёный Дол 243432 ",пер. аДчный д  .59 пкв .90," +97574469629"
42№1740912,"Емельянво Иннокентий Николаевич ","Костромская об.л слео  Исаево 328196 ","ул. Виноградная д.  89 "," +79310096815"
67№5978842,"Золотарёав Регина Афаансьевна ","Брянская обл. аг.  Щченка 211026 ","ул Ваттуина д.  38 "," +73916967170"
201№617647,"Туро Виктор Макарович ","Каилнинградская обл. .  Городщии 252525 ","Игуменский тракт д.  52 "," +79847785444"
82№9981997,"Власво Авксенти Анреевич ","Ленинградская обл. д.  Бориосво 269109 ",ул. Гикало д . 75 к.в 59," +79444261977"
56№5838398,"Красильников Ефрем Константинович ","Ворноесжкая обл .г. Х олопоов 270178 ",ул. нсПиская д.  3з2 кв. 32," +79921663934"
12№31л39086,"Матвеев КимЕвгнеьевчи ","Белгородсакя обл. д.  Отрадное2 77159 ",ул.Д исенксая д.  44 кв. 97," +79113896335"
53№3087776,"Болдрыева Лилия Петровна ","Брянская обл.пд.  Аднрынк и243277 ","ул. Гикалод .  07 "," +79559979083"
36№5249652,"Лаазрев Галактион Андреевич ","Псковская обл. село  Пиищхино 224415 ","ул. Белинсководг .  15 "," +79853474110"
599№733937,"Срелков Марк Савельевич ","Тверская обл. г.  Сменки 255692 ","Игуменский тркат д . 2 "," +79893284325"
31№1378596,"Фомичёв Дорофей Валентинович ","Леннигардская обл. д.  Борисово2 69109 ",ул. Ватутина д.  15 кв. 2," +7777653838"
27№59я28553,"Алёшина Урсула Анрдеевна ","Белгородсакя обл. д.  Отрадное 271759 ",ул. Ватутин ад.   к5в .77," +79799680796"
88№5210103,"Сорокин Евгенйи Дмитривеич ","Ленинргадская об.л село  Герлоь д238661 ",ул. Диеснскяа д.  81 в. 26," +97178647668"
7774№99321,"Власова Каолниа оИсифвона ","Костросмкая обл. село  Исаево2 38196 ","ул. Бехтеерва д.  30 "," +79382297760"
403№557695,"Деметньева Инна Эдуадровна ","Брянсбка яобл. аг.  Соновка 264244 ","ул. Дисенская д.  12 "," +79а43379г8233"
8№9918370,"Крылво Ермолай Васильевчи ","Воонжеская обл. д.  уЛч 261543 ","ул. иГкало д.  44 "," +97725977134"
97№1741349,"Еремеева ЕвлапмияА фанасьеван ","Белгородская обл. аг.  Тополи 267551 ","ул. Белинского д.  90 "," +9186650898"
34№ц8213443,"Измайлова Алина фЕимовна ","Чеченска Ряес.д .  Курчалой 234658 ",ул. Белинского д.  77 к.в1 2," +79758046014"
97№6198538,"Щуикн Иакинф Георигевич ","Воронежская обл. г.  Холопово 207178 ",пер .Дчный д.  57 клв. 87," +79182щ320070"
86№1643895,"Родионов Миртофан Алекснадрович ","Владимирска яобл. д.  Гусевски й232010 ","ул. Марска Карла д.  58 "," +97063150132"
171№052041,"Титов Павел Сергеевич ","Псковскаяо бл. г. К амешково 235348 ",ул. Запрудная д . 52 к.в 94," +7922874872"
13№8856913,"Капустин аДнакт Ефимович ","Ленингардская обл. село  Герлоьд 238661 ",ул. Ваттин ад.  21 кв. 32," +79391401582"
90№2404200,"Гладкова Валедрия Ромамновна "," г.  Моксав 215527 ",ул. Александровская .д  4 4кв. 47," +76945200653"
359393824,"Бессоонва Дана Владимировна ","Калининградская обл.д .  Иачево 206250 ",проздА лексанрдовская д.  97 кв. 97," +79036264044"
