Passport,Name,City,Street,Phone
89№17ж65841,"ДобрианМ илиц лАкесндаровна ","ладиымирксая б.л д.  Гуесвсклий 232010 ","ул .Гзсателл о д 45ц "," +71985091264"
13№5271988,"Сегрее Меленит Нйаумвоич "," уг . Снакт-Пефетррбу г294298 ","ул.К заея д . 66 ",+7г9234258
500№0641о5,"СуовровВ алерий Аантоляьеич ","Вореонжксая обл. .г К аарбново2 65884 ","ул .Дисеснкаяд .  59ц "," +79937205814"
6а10№885414,"Больашоква рИиан Ефимвона ","Пскосвкаяо блд. Н.  оавя Быковка 247286 ","ул.З ащпурнад яд.г  06 "," +9676653013"
31№0060768,"БуорН ветсОор лгкоевчи ","Костромжская бо.л есолИ сеав о238619 ","ул. МкарсаК аралд .  6 "," +779300644"
531№455и169,"Рогов Бпгода ноБгдоанвйчи ","Брянска яолб. сел о бЛюшыь 294385 ",ул. Аклесандровсяак д. 27 к в .63," +99487134253"
ъ957№241946,"Треьятковр Аисартх Роебротивч ","Чеченскя аРес. га. Г едруемс2 16492 ","ул .аГгарни .ад 4 5 "," +97574648386"
198№91465,"БепаслваоМ атрнё Дамиртиевна "," г  аСтнцк-Петеррбг у299482 ","ул И.внаоквася д.  13 "," +75904398827"
у7№32198340,"Гакабоав АнтониАна таноьенлва ","Владимирская обл.г . В лдаимир2 20863 ",ул .Гастелло д . 63 к.в 7," +79ш499993829"
5п8№555127,"Дегяртмва МаатёнрО лоегвна ","Белгоросдкая обл.д .  Отрадоне2 71759 ","ул .Блеинского д .9 0 "," +730792я17в02"
76м01591,"Зобашв НннаааВлирвена ","Чеченсакя Ре.с слео о шРноиЧ-у 269618 ",ул. Марса аКлрад .  51 кв. 93," +707771087"
541№195320,"олуебвАа жнеиилка Кнотсантивонна ","Костромск яаобл.г.   Вянзик и279739 ",преозд Алксеаднрвокасяд .  89 кв1. 9," +97360704699"
138№336519,"БултаоваЕ вллаия Сенмеовьна ","Владимирска ялгоб. аг.  Догляа Луаж 228402 ","про ездАлексаднровская д  .26 "," у+96579697751"
77906343,"ВешнкявошаМ ари яФиилпиопшвна ","Пскоскавя обл. га.  Дваыдово2 67377 ",ул. Бхетревеа.  д  67вк .72," +79285844319"
3076№00075,"РожковН естор аИвнвочи ","Белгородска яолб. г.  Беглород 211074 ","ул.д Ваттиу ан.д  46 "," +97346628594"
3№792160,"Гущнаи Праксовья Афааньсевна ","Московскяао лб. г.  Никологоры 288646 ",проездА лкесандорсвкяа .д  38к . в25," +7ц39л89396696"
226№896245,"Гулегяв Мхилаин Атонвоич ","Псковская обл.  г Камшеков о235348 ","ул .зКае дя.  76 "," +9795559х0224"
833№ш550897,"Жпраова ЕводкиПя лтаонован ","Владимрсиая олб . г. Дукби 268211 ","ул.е Втаувтина .д 3 5 ",е 79+870476659
5178№0253к8,"ГобяречавСоияфЛ ьвован ","Псоквсакя обл. аг.  аДвыдово 267377 ",ул. иПщкнасяд.   9к в. 95," 79380621з98"
х8075№23373,"АрхпиоаП алвина Дмитревина ","Воронесжка яобл. слео С труннио270424 ","ул. иПскняа д.  4э "," +097979к3ю2668"
4№3461068,"ЯкшуеАв ртемйТи арсаовчи ","Калниинградсакя .бол г  .оГргоховец 802629 ",пер. Дчаын й.д 8  1кв. 84," +ч79168068072"
4734№34425,"Шестоакв Кирфлил Гргиорьевич ","Белгроодская бло .аг . Тоопил 265571 ",ул. Вниозрданадя . 9м3 к в. 23," +29766059л827"
5№7453135,"Злоиабн Лада Петрчован ","Кострмосак ябол. .г  Хооршев о294796 ",Игуенмс икйртакт д.  95 к в.39," +17934853559"
51№2382854,"Зувеа Алевитна Георвгена ","Калинниградксяа обл. .г  оГрдоии 252525 ","Игмескнй итраотк д.н  40 "," +34703ц93584"
5р9№839975,"ЕрмаокВва ронсо фийрЮьевич ","Моксосвкая об л.га. К рутые 23977 ",ул. иДеснксяа д.  9 кв. 10," +75924595130"
90№9289661,"Родниов вграфМи хайлоивч ","Киалинирнгсдкаая об.лд.  Ивачве о206250 ","проез дАлкеандвсяка д.  41 "," у+7199я1455451"
93№08п59754,"Бысесон вщМарцаагртиа Даниолвна "," г.  Сантк-Птцееурбгр 929482 ",Игуменсийкт рак тд . 77 к.в 28," +97178789375"
840№318634,"Бочарова лГикеир япнрдАеева ","Твреская олб.с ело в Агафноов о201в361 ","ул.Гиа к о.д 92 "," +97906479м34"
26№591548,"Белуоасво Юли яЭудраодван ","Белгдроская бол.аг .  Топлио 265751 ",ул .Биелнскгоо.д  5 8к в .67," +99736ж111809"
9л83№9813м5,"Кулаков Дофбрын мяеЕльявнио ","Ленингардксая обл. д. Б росово629109 ","ул.Б лениксо год  .5 ",о 76к955545133
ф9№35693775,"Михайойвл Ибарлки Пйлатоновчи ","Брнсяяак бол. село  Любышь 234985 ",ултИ в.ановксая .д  1 9кв. 62," л+977х97154625"
5655№8908,"Боробв аЛюбьо врАакдеьнва ","Брсянка яо.бла г. Щученка 120162 ",ул.Г икало д. 5  1кв. 80," +7936866471"
314№885ж505,"МатвевеП олкиар пЕвенгьеичв ","Мсковсакя олб.г .  Исакповка 126964 ","улМ.а ркс аКлаад.  3 2 "," +97867020086"
361м937№72,"ЕромаелваРу слан аБроисован ","Ленингрсдкая обл. г. З еёлный Дло243432 ",ул. Маркс Коар лад.  02 в. 86," +9722854м654"
75№0751055,"Голвроа лАиса Афнаасьеав ","Бряская обл .есл о Любышь2 94385 ","ул. Виногадрная д . 78ио "," +97978ь418146"
3215№80461,"БарнаовалАниарА кдаьевна ","Белгоросдакя обл. г.  Белогрдо211074 ",пер. Даынйо д.  88 .к 63," +79228674716"
132980224,"Исакво ВдлалеСн тпеавнчои ","Владщимирскаяо бл. д .Г уссвекий 232010 ",презАд елкангдорвксая д.  84 к в.34," +79367ы069717"
765№ю438258,"Голубе Ирвкалий орЯлсваоивч ","Моксвоская обл. г.  Никлоогрыо 288646 ","ул .щаГтлслод.   55 "," +ш79932822946"
34729№669,"Алексеева Лиляи Эадрудоавн ","Костмроская обл.г   .зВнякии 279937 ",ул. лАкесаднрвоская д . 88 кв. 56," +79534485672"
83№66791е18,"Никифоорв БогданАа нтоьлвеич ","Псоквская олуб.с ело  Пищинхио 224451 ",л. Пнскяад . 7  6. 4к8,+о79735566729
50№9895142,"Вавилова Агирипн аМавтееван ","Тверскаяь робл. г. С емнки 255692 ","ул.К аез яд.  55 "," +97ч46945286у6"
5№3438673,"АкфаснаьвеКз умаь Игорвчеи ","Твесрая олб.я г.  Аеифно 299186 ",ул .Втатуниад ь.  78вк .8 3," +7229а574ж372"
29№7263338,"Арттамонова Карлоина Аракдьевна ","Белгородская олб.д .щ  Отардное 277519 ","пе. рачДнйы д.3  1 "," +67944360416"
71№365362,"Ивоанв Паисйи рЮьевич ","Белгроодская обла.г . п Тоояли26 5751 ",ул Вигонраняадд  . 36," щ+7ж946209835"
40№1916508,"Никитинк Ниаонр рЮеьчви ","Твесркая обл.  г. менки2 52569 ",ул. Бехтерев ад .1 9 кв. 12," 67939ж916850"
85779614,"Ореховг ИорьМ аакрович ","Псквсока яол баг .Даыводв о62737 ","ул. елБнискоо г.д  75 "," +79986773151"
15№5854838,"БлоханиП легаВея лаериевна ","Владмиирксяа обл. сео лр Асаки2 89975 ","ул.Г иакл од. 43 "," +к79617829677"
342№629258,"Сковл оМиалн ьИич ","Брянска яоб.л г.  Дяьлтковыо 352408 ","улМ ш.акаернко д .э 90 "," +97810652е873"
47564063,"ЕфикмоавМ араф Иговреан "," г.  аСнкт-тПеребург 49982 ",ул .Иаввонкса яд  73," +1974э08396б60"
84№8989918,"Емельянов вирК Евегвньиеч ","Тверсаяк бол.г.   рАеифон 299816 ","ул .Аводторовкс аяд. 47  "," +91766541146"
973328№911,"ЧерновЕ млеьмянИ осиоивфч "," г.  Сантк-еебтуррг294892 ","ул. Мкаарнкеьо .д 9 2 "," +78965291627"
27698977,"Богданош ПванкартийГс ариволивч ","Чеченская Рес. село  Ршони-Ч у61286 ",ул. аКе здя2  6 к.в 4м5," +7994339602"
65№7324295,"Добырнайн Павлин аАракдеьвна ","Ленингадская ообл. елсо Г еорльд23 8661 ",ул. аЗпшурдна яд.   .вк 5," +71793311996"
543№958994,"Гороохв еаРгин анАатолеьван ","Беглородская бол. г.  Белгоорд 211074 ","ул аз.Ке .д  52 "," +79998249325"
43№ч21035,"Жукхво Веендикт Таарвсичо ","елгоыродская об.л г.  Белогорд 211704 ",чул. Динссекяа д.ю 8 3свк7. 8," +г5907752010"
66№з1р212940,"Анохаин адааЕ гвеьнвена ","Ленингдраксая об.лсл ое Г ерольд 328616 ",ул. Бехетрев а.д  34 кв. 21," +979235336"
20№6397795,"МатвеетАвт ноГ оергтиевич ","Леннигрдасак обл.. г  Зшеёнлый Дол 234432 ",ул. Макаренк од.  н2 к .3в3," +719ч94708741"
23з№2763737,"Каалшинков ЛеноидН аумоивч ","Псквоская бол. га.  Давыдоов2 67737 ","ул. сиДнекса дя. 8 3 "," +97748537132"
47№19ю6у509,"Соволвьё МтирофанТихонкович ","Тверксая олб. а. г Станки 216772 ","ул. Гастлелод . 6 5 "," +1970393439"
376№98ы99зъ95,"КрасильниковАт рруч Ярославоичв ","Владиимрская об.л д.  укГссевкий 232001 ","ул .Ббекислнгоо д.5  4 "," +979х2ф827609"
54№787ш568,"огвоПё т ренДсивиоч ","Московсакя бол. г.  Иксаоква 216946 ",ул. Автодороквсая .д 2 9 кв. 96," +983756ф82343"
248№974185,"Белеяв БорисА клесеевич "," г М.с окаов1 25572 ",ул. иДесснкяад е  06 вк .49," +975г59096143"
574№986170,"Виогнрдавоа ИАя нонтонва ","Мосыкосвкая огб.лс жел о Мстрёа 282023 ",ул. Аелксанродсвкагяд .  53 кв.ь6 2," +37930864244"
39№3864815,"Мевдее Алвкеесй Еровоич ","Калининграсдкая обл.г . Гг оорховеца2 08629 ","ул. Ггааарни д. 4 0 ",н +79294ь493773
40215727,"Дьяокнован Ина оИсфивона ","Чеченская Ре.с се лой Ронши-Ч 629618 ",ул .Гастеллод .0  2 кв.8 4," +77965174010"
42568№3828,"ороцнво еГраси мИиосфовчи ","Котсормсакя обл. .рд  Иавьнково 216009 ",пер .Даычнй д.  86дк в. 19," +72095481456"
79№ъм53ф2166,"ИгнатвоанАжеилка оИсиовна ","Белгородскаяо лб .сео л бЯловноо2 7600 ","ул .лкесаднровская д.  87 "," +787971032"
483№62252ю0,"Яковел вЕфим Аерксньвеич ","Леингнрдаск аябол. сео Глероьлд 236816 ","ул. аЗрпнудяа.  д 90 "," +9749ъ756647"
794№785273,"Белоуовс аИоанна Нкиолеавна ","Беглродокдсая обл. .д  Отрданое 217759 ","уул .ирКовад .  48 "," +7996373891"
5№9804875,"Фёодров ИсааКк ориилоливч ","Псковская бо лл.сео  Пиищхино 22454ю1 ",уле. Гкаол д. я 1 4к.в 81,+9477803945
1285№0445,"Иваонв аЕпитсимаи Вткортовна ","ЧеческнаяРе с. д.  Кручалйо24 3658 ",ул. Бхетервеад . 66к в. 75,+7554334387
34№409075,"авиВн тиали йАнрдечиев ","Влаидмирскяа бл. г.  Вюладиирм 022836 ","ул .инагордня а.д  88 ",ь 7+в9ф808821365
ъ67№364169,"МухниН икодми еФдоорвчи ","Московсклая облг. .  Иасковка2 16496 ","ул.ы Княеа д.  4 "," 79800061110"
66ж№6897251,"Боирос вАртём Киирллович ","Кобстромсакя обл.г .  Хроошев 29о49з76 ",хуД.лис неаякд .  40 кв. 84," ш9+7841231936"
456№063890,"Ивоанв Иракилй Емльенояивч ","Воронежская бол. аг.  Козаклово 228227 ",ул. Блъияекнгоо .д  91ков .31," +72952101772"
19е9№92у1255,Банжеова Лаисра Ярослваонва,"Кострмоскяа обл.г .  Взякнии 279793 ",ул. Автоодорвская .д 3 5 к.в4 1," +77955710853"
950№940829,"Калчваае лУит аСемженонва ","Костромкса яолб. аг. Г олоивн 2о03938 ",ул. аЗпрнудя а.д 8 вк .4," щ7+9304520615"
488№75198,"СиамовлойЕсвтафйии Иосфович ","Ленинграсдяка об.л . д Борисов о269910 ","ул. елБинскгоод . 1 9 "," +7854072647"
ы2349№73123,"Беляокв Парфнеий тСнисвлаович ","Калининргасдкая бол. г.  оГрохвоец 280629 ",ул. Кзеадяф  . 76 кв. 13," м+3782504671"
201№й07733,"Золтаораёв зАаТ расаовна ","Московксая .омбл.й г  Николоогры 288646 ",ул. Ваоуттанид  . 6 4вк.7 4,ч +77969685724
58№212164,"Басо аРгеиан Арсееньнва ","Костромкса яобл.г  . Хооршев о299476 ","улВ. ататуин д.  3 "," +9775652206"
538№к86339,"Новиокв Гмреан Ивановчи "," г.  сМокваф1 52527 ",ул. Гргааина д.  59 к.в9 2," 759905с85ян171"
28№030щ8392,"Гаврилов ГаирыилСн атисалвович ","Чеечснвкяа Рсе.г . Ш лаи 293153э ",ул. Автоодровщская . д6 6 кв. 71," +9326щ821405"
93431№3661,"Титов МракВ асиьеливсч "," г  .Москва 21в5527 ",ул. Бехетрвеаы д. 5 0к .в 20," +7894134205"
72п№7533108,"Гаивролва УрсуларМ атвеевн ","Тверсак яолб.а г . Станки 276127 ",у. аВхтуитнда .  12 к. в82," +97ф78854969ъ7"
96№4292,"Вавилова Елизавета Дмтифиреван ","Брянксаяобл. аг.  Щучне к21а0126 ",Игумесникй тракт д .8  3вк. 8," +н73954988287"
45№059773,"Данилова Иарида Ильичнчин ","Москвоская бло. д.  Кузьмнои 302722 ","унл Г.аграиа нд.  93 "," +97228629535"
318№780п202,"ЕфмиловаИ иран Гиргорьеван ","Косртосмкая обл .га.  Голоивк2н о90338 ","пеД.ч аын дй. 16 "," +9731066895"
28№5819632,"Ежоа виМлацб Егоорвна ","Твресакя болг . . Смнеки 255629 ","ул. Пнисая к .д 37 "," +79354220579"
325№264205,"Самойолв лВдаими роБгднаовчи ","Москосвкаяо блд ..  Кзьмион 203722 ",улГ. асетлл до . 6 к.в3 2," т79+522888293"
164№в0р81981,"Ефимовл ас рЯославовчи ","Пкосвкая бзол. д.  Ноавя Быоквка 242786 ",ул.Г еатслло д. 4  км0в.3 1," +87997104532"
2060№7ь616,"Гапклни Исидор раТаосвич ","Тверкса оялб. г.  мСен и255692 ","ул .Беилнксогдо   91 "," +73596313554"
14№66556к72,"Исакаов Нни ааВсшильвн ","Тврскеая об.л г.  Аерфино 92а1968 ","улП. иснкая  д. 82 "," +79323885111"
37№384147,"Кнзяев Макр аВоалерицивеч ","Калинингардксяа бол. г. Г рохоове 2ц80629 ","ул. иПнкася д . ъ99 "," +7955654907"
782№39158,"СамснооваВцдим еСрегеив ","Москосвкяао бл.г а.  Круаые2 79377 ","ул. аГагрина д.  71 "," +979592109д37"
38№8ц351427,"Грмоаов Алин раьЮеанв ","Беглроодсакя обл. д.  Ортандое 277195 ",ул. бКеазяд .  23 кв.6 8," +79561758965"
33№4105436,"КуликовМвтей рАесьнвчи ","Калинигнадрская обл. соел  иМтио н251438 ",ул .иКиуровад .  27к в. 84," +94706158610"
25№917222,"Анисимвоа Анстаасяи лИьиннчиюа ","Воронежскаяоф лб. село  Струнно27 4024 ","ул .Вттуаид.  4 "," +7983483988"
66№657602,"Белкниа Вера Маскмианв ","Белгоросдкая обл.е со л Яблоново 247600 ",у.Д исенсак яд.  47 к. в69," +7964699э27"
97№187550,"Дёмина Галшина чьвЛоврана "," г.  оМвкса1х 25257 ","у. иГклао   д.9 "," +7197016554ъ2"
